{"fetched_at":"2026-07-14T17:41:16.182Z","source":"https://celestrak.org/NORAD/elements/gp.php?NAME=WORLDVIEW&FORMAT=JSON","constellation":"worldview","records":[{"OBJECT_NAME":"WORLDVIEW-1 (WV-1)","OBJECT_ID":"2007-041A","EPOCH":"2026-07-14T04:55:04.063296","CLASSIFICATION_TYPE":"U","MEAN_MOTION":15.24552092,"ECCENTRICITY":0.0001437,"INCLINATION":97.3904,"RA_OF_ASC_NODE":314.5689,"ARG_OF_PERICENTER":210.7351,"MEAN_ANOMALY":149.3802,"EPHEMERIS_TYPE":0,"NORAD_CAT_ID":32060,"ELEMENT_SET_NO":999,"REV_AT_EPOCH":4699,"BSTAR":0.0001427,"MEAN_MOTION_DOT":0.00003442,"MEAN_MOTION_DDOT":0},{"OBJECT_NAME":"WORLDVIEW-2 (WV-2)","OBJECT_ID":"2009-055A","EPOCH":"2026-07-14T03:54:53.557632","CLASSIFICATION_TYPE":"U","MEAN_MOTION":14.3790675,"ECCENTRICITY":0.0005272,"INCLINATION":98.4757,"RA_OF_ASC_NODE":268.2454,"ARG_OF_PERICENTER":132.3607,"MEAN_ANOMALY":227.8027,"EPHEMERIS_TYPE":0,"NORAD_CAT_ID":35946,"ELEMENT_SET_NO":999,"REV_AT_EPOCH":87952,"BSTAR":0.000026938,"MEAN_MOTION_DOT":3.8e-7,"MEAN_MOTION_DDOT":0},{"OBJECT_NAME":"WORLDVIEW-3 (WV-3)","OBJECT_ID":"2014-048A","EPOCH":"2026-07-14T04:28:32.387808","CLASSIFICATION_TYPE":"U","MEAN_MOTION":14.85063297,"ECCENTRICITY":0.0001222,"INCLINATION":97.8557,"RA_OF_ASC_NODE":269.6458,"ARG_OF_PERICENTER":157.8708,"MEAN_ANOMALY":202.256,"EPHEMERIS_TYPE":0,"NORAD_CAT_ID":40115,"ELEMENT_SET_NO":999,"REV_AT_EPOCH":64591,"BSTAR":0.000055953,"MEAN_MOTION_DOT":0.00000425,"MEAN_MOTION_DDOT":0}]}
